{
    "week": 293,
    "satellites": [
        {
            "Name": "BEIDOU-3 M8 (C28)",
            "Line1": "1 43108U 18003B   24320.46014882 -.00000074  00000+0  00000+0 0  9992",
            "Line2": "2 43108  54.8163 322.3944 0005241 264.3127  95.6417  1.86230766 46583",
            "SatelliteNumber": "43108",
            "Classification": "U",
            "LaunchYear": "18",
            "LaunchNumber": "003",
            "PieceOfLaunch": "B",
            "EpochYear": "24",
            "EpochDay": 320.46014882,
            "FirstDerivativeMeanMotion": -7.4e-07,
            "SecondDerivativeMeanMotion": "00000+0",
            "BSTAR": "00000+0",
            "SetNumber": "999",
            "Inclination": 54.8163,
            "RAAN": 322.3944,
            "Eccentricity": 0.0005241,
            "ArgumentOfPerigee": 264.3127,
            "MeanAnomaly": 95.6417,
            "MeanMotion": 1.86230766,
            "RevolutionNumber": "4658"
        },
        {
            "Name": "BEIDOU-3 M4 (C22)",
            "Line1": "1 43207U 18018A   24320.90123677 -.00000032  00000+0  00000+0 0  9994",
            "Line2": "2 43207  56.1483  82.2980 0003837  19.8180 340.1648  1.86230951 45978",
            "SatelliteNumber": "43207",
            "Classification": "U",
            "LaunchYear": "18",
            "LaunchNumber": "018",
            "PieceOfLaunch": "A",
            "EpochYear": "24",
            "EpochDay": 320.90123677,
            "FirstDerivativeMeanMotion": -3.2e-07,
            "SecondDerivativeMeanMotion": "00000+0",
            "BSTAR": "00000+0",
            "SetNumber": "999",
            "Inclination": 56.1483,
            "RAAN": 82.298,
            "Eccentricity": 0.0003837,
            "ArgumentOfPerigee": 19.818,
            "MeanAnomaly": 340.1648,
            "MeanMotion": 1.86230951,
            "RevolutionNumber": "4597"
        },
        {
            "Name": "BEIDOU-3 M3 (C21)",
            "Line1": "1 43208U 18018B   24320.96785225 -.00000032  00000+0  00000+0 0  9994",
            "Line2": "2 43208  56.1478  82.3000 0005492 314.1144  45.8084  1.86231050 45971",
            "SatelliteNumber": "43208",
            "Classification": "U",
            "LaunchYear": "18",
            "LaunchNumber": "018",
            "PieceOfLaunch": "B",
            "EpochYear": "24",
            "EpochDay": 320.96785225,
            "FirstDerivativeMeanMotion": -3.2e-07,
            "SecondDerivativeMeanMotion": "00000+0",
            "BSTAR": "00000+0",
            "SetNumber": "999",
            "Inclination": 56.1478,
            "RAAN": 82.3,
            "Eccentricity": 0.0005492,
            "ArgumentOfPerigee": 314.1144,
            "MeanAnomaly": 45.8084,
            "MeanMotion": 1.8623105,
            "RevolutionNumber": "4597"
        },
        {
            "Name": "BEIDOU-3 M9 (C29)",
            "Line1": "1 43245U 18029A   24321.18777032 -.00000076  00000+0  00000+0 0  9997",
            "Line2": "2 43245  54.7009 320.0770 0002362 262.6539  97.3268  1.86232379 45139",
            "SatelliteNumber": "43245",
            "Classification": "U",
            "LaunchYear": "18",
            "LaunchNumber": "029",
            "PieceOfLaunch": "A",
            "EpochYear": "24",
            "EpochDay": 321.18777032,
            "FirstDerivativeMeanMotion": -7.6e-07,
            "SecondDerivativeMeanMotion": "00000+0",
            "BSTAR": "00000+0",
            "SetNumber": "999",
            "Inclination": 54.7009,
            "RAAN": 320.077,
            "Eccentricity": 0.0002362,
            "ArgumentOfPerigee": 262.6539,
            "MeanAnomaly": 97.3268,
            "MeanMotion": 1.86232379,
            "RevolutionNumber": "4513"
        },
        {
            "Name": "BEIDOU-3 M10 (C30)",
            "Line1": "1 43246U 18029B   24321.11722623 -.00000075  00000+0  00000+0 0  9996",
            "Line2": "2 43246  54.6989 320.1074 0003627 343.3252  16.6707  1.86232719 45116",
            "SatelliteNumber": "43246",
            "Classification": "U",
            "LaunchYear": "18",
            "LaunchNumber": "029",
            "PieceOfLaunch": "B",
            "EpochYear": "24",
            "EpochDay": 321.11722623,
            "FirstDerivativeMeanMotion": -7.5e-07,
            "SecondDerivativeMeanMotion": "00000+0",
            "BSTAR": "00000+0",
            "SetNumber": "999",
            "Inclination": 54.6989,
            "RAAN": 320.1074,
            "Eccentricity": 0.0003627,
            "ArgumentOfPerigee": 343.3252,
            "MeanAnomaly": 16.6707,
            "MeanMotion": 1.86232719,
            "RevolutionNumber": "4511"
        },
        {
            "Name": "BEIDOU-2 IGSO-7 (C16)",
            "Line1": "1 43539U 18057A   24320.50709086 -.00000044  00000+0  00000+0 0  9998",
            "Line2": "2 43539  55.1494 168.0692 0078061 232.2613 310.2822  1.00265340 23326",
            "SatelliteNumber": "43539",
            "Classification": "U",
            "LaunchYear": "18",
            "LaunchNumber": "057",
            "PieceOfLaunch": "A",
            "EpochYear": "24",
            "EpochDay": 320.50709086,
            "FirstDerivativeMeanMotion": -4.4e-07,
            "SecondDerivativeMeanMotion": "00000+0",
            "BSTAR": "00000+0",
            "SetNumber": "999",
            "Inclination": 55.1494,
            "RAAN": 168.0692,
            "Eccentricity": 0.0078061,
            "ArgumentOfPerigee": 232.2613,
            "MeanAnomaly": 310.2822,
            "MeanMotion": 1.0026534,
            "RevolutionNumber": "2332"
        },
        {
            "Name": "BEIDOU-3 M5 (C23)",
            "Line1": "1 43581U 18062A   24321.34272242  .00000057  00000+0  00000+0 0  9996",
            "Line2": "2 43581  54.1148 201.9559 0002417 325.1785  34.9032  1.86228588 42872",
            "SatelliteNumber": "43581",
            "Classification": "U",
            "LaunchYear": "18",
            "LaunchNumber": "062",
            "PieceOfLaunch": "A",
            "EpochYear": "24",
            "EpochDay": 321.34272242,
            "FirstDerivativeMeanMotion": 5.7e-07,
            "SecondDerivativeMeanMotion": "00000+0",
            "BSTAR": "00000+0",
            "SetNumber": "999",
            "Inclination": 54.1148,
            "RAAN": 201.9559,
            "Eccentricity": 0.0002417,
            "ArgumentOfPerigee": 325.1785,
            "MeanAnomaly": 34.9032,
            "MeanMotion": 1.86228588,
            "RevolutionNumber": "4287"
        },
        {
            "Name": "BEIDOU-3 M6 (C24)",
            "Line1": "1 43582U 18062B   24321.20775735  .00000058  00000+0  00000+0 0  9998",
            "Line2": "2 43582  54.1144 201.9499 0006831  34.9103 325.2319  1.86229660 42871",
            "SatelliteNumber": "43582",
            "Classification": "U",
            "LaunchYear": "18",
            "LaunchNumber": "062",
            "PieceOfLaunch": "B",
            "EpochYear": "24",
            "EpochDay": 321.20775735,
            "FirstDerivativeMeanMotion": 5.8e-07,
            "SecondDerivativeMeanMotion": "00000+0",
            "BSTAR": "00000+0",
            "SetNumber": "999",
            "Inclination": 54.1144,
            "RAAN": 201.9499,
            "Eccentricity": 0.0006831,
            "ArgumentOfPerigee": 34.9103,
            "MeanAnomaly": 325.2319,
            "MeanMotion": 1.8622966,
            "RevolutionNumber": "4287"
        },
        {
            "Name": "BEIDOU-3 M12 (C26)",
            "Line1": "1 43602U 18067A   24321.14151036  .00000061  00000+0  00000+0 0  9995",
            "Line2": "2 43602  54.2059 200.6474 0008423  32.4692 327.6811  1.86227626 42350",
            "SatelliteNumber": "43602",
            "Classification": "U",
            "LaunchYear": "18",
            "LaunchNumber": "067",
            "PieceOfLaunch": "A",
            "EpochYear": "24",
            "EpochDay": 321.14151036,
            "FirstDerivativeMeanMotion": 6.1e-07,
            "SecondDerivativeMeanMotion": "00000+0",
            "BSTAR": "00000+0",
            "SetNumber": "999",
            "Inclination": 54.2059,
            "RAAN": 200.6474,
            "Eccentricity": 0.0008423,
            "ArgumentOfPerigee": 32.4692,
            "MeanAnomaly": 327.6811,
            "MeanMotion": 1.86227626,
            "RevolutionNumber": "4235"
        },
        {
            "Name": "BEIDOU-3 M11 (C25)",
            "Line1": "1 43603U 18067B   24321.27496846  .00000060  00000+0  00000+0 0  9990",
            "Line2": "2 43603  54.2032 200.6077 0005064  26.7883 333.3365  1.86227141 42380",
            "SatelliteNumber": "43603",
            "Classification": "U",
            "LaunchYear": "18",
            "LaunchNumber": "067",
            "PieceOfLaunch": "B",
            "EpochYear": "24",
            "EpochDay": 321.27496846,
            "FirstDerivativeMeanMotion": 6e-07,
            "SecondDerivativeMeanMotion": "00000+0",
            "BSTAR": "00000+0",
            "SetNumber": "999",
            "Inclination": 54.2032,
            "RAAN": 200.6077,
            "Eccentricity": 0.0005064,
            "ArgumentOfPerigee": 26.7883,
            "MeanAnomaly": 333.3365,
            "MeanMotion": 1.86227141,
            "RevolutionNumber": "4238"
        }
    ]
}